; 10 mm circle with 0.8 mm parallel line infill
; Single layer
; Calibrated nozzle position is the LEFTMOST point of the circle
; All non-extruding moves are routed along the circle perimeter
; No diagonal travel moves cross the interior
; Relative XYZ motion; Allevi-style increasing E values; no homing
M107
G21
G91
M83
G92 E0

; ===== Layer 1 =====
; Outer circle
G1 X0.0190 Y-0.4358 E0.200 F200
G1 X0.0569 Y-0.4325 E0.400 F200
G1 X0.0944 Y-0.4259 E0.600 F200
G1 X0.1312 Y-0.4160 E0.800 F200
G1 X0.1669 Y-0.4030 E1.000 F200
G1 X0.2014 Y-0.3869 E1.200 F200
G1 X0.2344 Y-0.3679 E1.400 F200
G1 X0.2655 Y-0.3461 E1.600 F200
G1 X0.2947 Y-0.3216 E1.800 F200
G1 X0.3216 Y-0.2947 E2.000 F200
G1 X0.3461 Y-0.2655 E2.200 F200
G1 X0.3679 Y-0.2344 E2.400 F200
G1 X0.3869 Y-0.2014 E2.600 F200
G1 X0.4030 Y-0.1669 E2.800 F200
G1 X0.4160 Y-0.1312 E3.000 F200
G1 X0.4259 Y-0.0944 E3.200 F200
G1 X0.4325 Y-0.0569 E3.400 F200
G1 X0.4358 Y-0.0190 E3.600 F200
G1 X0.4358 Y0.0190 E3.800 F200
G1 X0.4325 Y0.0569 E4.000 F200
G1 X0.4259 Y0.0944 E4.200 F200
G1 X0.4160 Y0.1312 E4.400 F200
G1 X0.4030 Y0.1669 E4.600 F200
G1 X0.3869 Y0.2014 E4.800 F200
G1 X0.3679 Y0.2344 E5.000 F200
G1 X0.3461 Y0.2655 E5.200 F200
G1 X0.3216 Y0.2947 E5.400 F200
G1 X0.2947 Y0.3216 E5.600 F200
G1 X0.2655 Y0.3461 E5.800 F200
G1 X0.2344 Y0.3679 E6.000 F200
G1 X0.2014 Y0.3869 E6.200 F200
G1 X0.1669 Y0.4030 E6.400 F200
G1 X0.1312 Y0.4160 E6.600 F200
G1 X0.0944 Y0.4259 E6.800 F200
G1 X0.0569 Y0.4325 E7.000 F200
G1 X0.0190 Y0.4358 E7.200 F200
G1 X-0.0190 Y0.4358 E7.400 F200
G1 X-0.0569 Y0.4325 E7.600 F200
G1 X-0.0944 Y0.4259 E7.800 F200
G1 X-0.1312 Y0.4160 E8.000 F200
G1 X-0.1669 Y0.4030 E8.200 F200
G1 X-0.2014 Y0.3869 E8.400 F200
G1 X-0.2344 Y0.3679 E8.600 F200
G1 X-0.2655 Y0.3461 E8.800 F200
G1 X-0.2947 Y0.3216 E9.000 F200
G1 X-0.3216 Y0.2947 E9.200 F200
G1 X-0.3461 Y0.2655 E9.400 F200
G1 X-0.3679 Y0.2344 E9.600 F200
G1 X-0.3869 Y0.2014 E9.800 F200
G1 X-0.4030 Y0.1669 E10.000 F200
G1 X-0.4160 Y0.1312 E10.200 F200
G1 X-0.4259 Y0.0944 E10.400 F200
G1 X-0.4325 Y0.0569 E10.600 F200
G1 X-0.4358 Y0.0190 E10.800 F200
G1 X-0.4358 Y-0.0190 E11.000 F200
G1 X-0.4325 Y-0.0569 E11.200 F200
G1 X-0.4259 Y-0.0944 E11.400 F200
G1 X-0.4160 Y-0.1312 E11.600 F200
G1 X-0.4030 Y-0.1669 E11.800 F200
G1 X-0.3869 Y-0.2014 E12.000 F200
G1 X-0.3679 Y-0.2344 E12.200 F200
G1 X-0.3461 Y-0.2655 E12.400 F200
G1 X-0.3216 Y-0.2947 E12.600 F200
G1 X-0.2947 Y-0.3216 E12.800 F200
G1 X-0.2655 Y-0.3461 E13.000 F200
G1 X-0.2344 Y-0.3679 E13.200 F200
G1 X-0.2014 Y-0.3869 E13.400 F200
G1 X-0.1669 Y-0.4030 E13.600 F200
G1 X-0.1312 Y-0.4160 E13.800 F200
G1 X-0.0944 Y-0.4259 E14.000 F200
G1 X-0.0569 Y-0.4325 E14.200 F200
G1 X-0.0190 Y-0.4358 E14.400 F200
G92 E0
; Parallel horizontal infill, 1.35 mm center-to-center spacing
; 8 evenly spaced lines centered about Y=0
G0 X0.0170 Y-0.4121 F200
G0 X0.0509 Y-0.4093 F200
G0 X0.0845 Y-0.4037 F200
G0 X0.1174 Y-0.3953 F200
G0 X0.1496 Y-0.3843 F200
G0 X0.1808 Y-0.3707 F200
G0 X0.2107 Y-0.3545 F200
G0 X0.2392 Y-0.3359 F200
G0 X0.2661 Y-0.3151 F200
G0 X0.2912 Y-0.2921 F200
G0 X0.3142 Y-0.2671 F200
G0 X0.3352 Y-0.2403 F200
G0 X0.3538 Y-0.2118 F200
G0 X0.3701 Y-0.1820 F200
G0 X0.3838 Y-0.1508 F200
G1 X3.2707 Y0.0000 E0.200 F200
G0 X0.3851 Y0.1514 F200
G0 X0.3712 Y0.1827 F200
G0 X0.3548 Y0.2128 F200
G0 X0.3360 Y0.2414 F200
G0 X0.3149 Y0.2683 F200
G0 X0.2917 Y0.2934 F200
G1 X-7.3782 Y0.0000 E0.400 F200
G0 X-0.2610 Y0.3095 F200
G0 X-0.2351 Y0.3296 F200
G0 X-0.2076 Y0.3476 F200
G0 X-0.1788 Y0.3632 F200
G1 X9.1432 Y0.0000 E0.600 F200
G0 X0.1311 Y0.3265 F200
G0 X0.1078 Y0.3350 F200
G0 X0.0840 Y0.3417 F200
G0 X0.0597 Y0.3468 F200
G1 X-9.9085 Y0.0000 E0.800 F200
G0 X-0.0343 Y0.3367 F200
G0 X-0.0115 Y0.3383 F200
G0 X0.0115 Y0.3383 F200
G0 X0.0343 Y0.3367 F200
G1 X9.9085 Y0.0000 E1.000 F200
G0 X-0.0597 Y0.3468 F200
G0 X-0.0840 Y0.3417 F200
G0 X-0.1078 Y0.3350 F200
G0 X-0.1311 Y0.3265 F200
G1 X-9.1432 Y0.0000 E1.200 F200
G0 X0.1788 Y0.3632 F200
G0 X0.2076 Y0.3476 F200
G0 X0.2351 Y0.3296 F200
G0 X0.2610 Y0.3095 F200
G1 X7.3782 Y0.0000 E1.400 F200
G0 X-0.2917 Y0.2934 F200
G0 X-0.3149 Y0.2683 F200
G0 X-0.3360 Y0.2414 F200
G0 X-0.3548 Y0.2128 F200
G0 X-0.3712 Y0.1827 F200
G0 X-0.3851 Y0.1514 F200
G1 X-3.2707 Y0.0000 E1.600 F200

; Print complete at final infill endpoint
G92 E0
M107
