; 10 mm circle with 0.8 mm parallel line infill
; Single layer
; Calibrated nozzle position is the LEFTMOST point of the circle
; All non-extruding moves are routed along the circle perimeter
; No diagonal travel moves cross the interior
; Relative XYZ motion; Allevi-style increasing E values; no homing
M107
G21
G91
M83
G92 E0

; ===== Layer 1 =====
; Outer circle
G1 X0.0190 Y-0.4358 E0.200 F200
G1 X0.0569 Y-0.4325 E0.400 F200
G1 X0.0944 Y-0.4259 E0.600 F200
G1 X0.1312 Y-0.4160 E0.800 F200
G1 X0.1669 Y-0.4030 E1.000 F200
G1 X0.2014 Y-0.3869 E1.200 F200
G1 X0.2344 Y-0.3679 E1.400 F200
G1 X0.2655 Y-0.3461 E1.600 F200
G1 X0.2947 Y-0.3216 E1.800 F200
G1 X0.3216 Y-0.2947 E2.000 F200
G1 X0.3461 Y-0.2655 E2.200 F200
G1 X0.3679 Y-0.2344 E2.400 F200
G1 X0.3869 Y-0.2014 E2.600 F200
G1 X0.4030 Y-0.1669 E2.800 F200
G1 X0.4160 Y-0.1312 E3.000 F200
G1 X0.4259 Y-0.0944 E3.200 F200
G1 X0.4325 Y-0.0569 E3.400 F200
G1 X0.4358 Y-0.0190 E3.600 F200
G1 X0.4358 Y0.0190 E3.800 F200
G1 X0.4325 Y0.0569 E4.000 F200
G1 X0.4259 Y0.0944 E4.200 F200
G1 X0.4160 Y0.1312 E4.400 F200
G1 X0.4030 Y0.1669 E4.600 F200
G1 X0.3869 Y0.2014 E4.800 F200
G1 X0.3679 Y0.2344 E5.000 F200
G1 X0.3461 Y0.2655 E5.200 F200
G1 X0.3216 Y0.2947 E5.400 F200
G1 X0.2947 Y0.3216 E5.600 F200
G1 X0.2655 Y0.3461 E5.800 F200
G1 X0.2344 Y0.3679 E6.000 F200
G1 X0.2014 Y0.3869 E6.200 F200
G1 X0.1669 Y0.4030 E6.400 F200
G1 X0.1312 Y0.4160 E6.600 F200
G1 X0.0944 Y0.4259 E6.800 F200
G1 X0.0569 Y0.4325 E7.000 F200
G1 X0.0190 Y0.4358 E7.200 F200
G1 X-0.0190 Y0.4358 E7.400 F200
G1 X-0.0569 Y0.4325 E7.600 F200
G1 X-0.0944 Y0.4259 E7.800 F200
G1 X-0.1312 Y0.4160 E8.000 F200
G1 X-0.1669 Y0.4030 E8.200 F200
G1 X-0.2014 Y0.3869 E8.400 F200
G1 X-0.2344 Y0.3679 E8.600 F200
G1 X-0.2655 Y0.3461 E8.800 F200
G1 X-0.2947 Y0.3216 E9.000 F200
G1 X-0.3216 Y0.2947 E9.200 F200
G1 X-0.3461 Y0.2655 E9.400 F200
G1 X-0.3679 Y0.2344 E9.600 F200
G1 X-0.3869 Y0.2014 E9.800 F200
G1 X-0.4030 Y0.1669 E10.000 F200
G1 X-0.4160 Y0.1312 E10.200 F200
G1 X-0.4259 Y0.0944 E10.400 F200
G1 X-0.4325 Y0.0569 E10.600 F200
G1 X-0.4358 Y0.0190 E10.800 F200
G1 X-0.4358 Y-0.0190 E11.000 F200
G1 X-0.4325 Y-0.0569 E11.200 F200
G1 X-0.4259 Y-0.0944 E11.400 F200
G1 X-0.4160 Y-0.1312 E11.600 F200
G1 X-0.4030 Y-0.1669 E11.800 F200
G1 X-0.3869 Y-0.2014 E12.000 F200
G1 X-0.3679 Y-0.2344 E12.200 F200
G1 X-0.3461 Y-0.2655 E12.400 F200
G1 X-0.3216 Y-0.2947 E12.600 F200
G1 X-0.2947 Y-0.3216 E12.800 F200
G1 X-0.2655 Y-0.3461 E13.000 F200
G1 X-0.2344 Y-0.3679 E13.200 F200
G1 X-0.2014 Y-0.3869 E13.400 F200
G1 X-0.1669 Y-0.4030 E13.600 F200
G1 X-0.1312 Y-0.4160 E13.800 F200
G1 X-0.0944 Y-0.4259 E14.000 F200
G1 X-0.0569 Y-0.4325 E14.200 F200
G1 X-0.0190 Y-0.4358 E14.400 F200
G92 E0
; Parallel horizontal infill, 0.8 mm spacing
G0 X0.0184 Y-0.4285 F200
G0 X0.0550 Y-0.4253 F200
G0 X0.0913 Y-0.4190 F200
G0 X0.1269 Y-0.4097 F200
G0 X0.1615 Y-0.3973 F200
G0 X0.1950 Y-0.3820 F200
G0 X0.2270 Y-0.3639 F200
G0 X0.2573 Y-0.3431 F200
G0 X0.2858 Y-0.3198 F200
G0 X0.3121 Y-0.2941 F200
G0 X0.3362 Y-0.2663 F200
G0 X0.3578 Y-0.2365 F200
G0 X0.3767 Y-0.2050 F200
G0 X0.3929 Y-0.1719 F200
G0 X0.4062 Y-0.1376 F200
G1 X2.8000 Y-0.0000 E0.200 F200
G0 X0.3414 Y0.1130 F200
G0 X0.3324 Y0.1373 F200
G0 X0.3217 Y0.1608 F200
G0 X0.3093 Y0.1835 F200
G0 X0.2953 Y0.2053 F200
G1 X-6.0000 Y-0.0000 E0.400 F200
G0 X-0.3011 Y0.2446 F200
G0 X-0.2812 Y0.2672 F200
G0 X-0.2596 Y0.2882 F200
G1 X7.6837 Y0.0000 E0.600 F200
G0 X0.1986 Y0.2547 F200
G0 X0.1817 Y0.2670 F200
G0 X0.1641 Y0.2782 F200
G1 X-8.7727 Y-0.0000 E0.800 F200
G0 X-0.1324 Y0.2597 F200
G0 X-0.1170 Y0.2670 F200
G0 X-0.1013 Y0.2733 F200
G1 X9.4742 Y-0.0000 E1.000 F200
G0 X0.1158 Y0.3959 F200
G0 X0.0827 Y0.4041 F200
G1 X-9.8712 Y0.0000 E1.200 F200
G0 X-0.0483 Y0.3987 F200
G0 X-0.0161 Y0.4013 F200
G1 X10.0000 Y0.0000 E1.400 F200
G0 X-0.0161 Y0.4013 F200
G0 X-0.0483 Y0.3987 F200
G1 X-9.8712 Y0.0000 E1.600 F200
G0 X0.0827 Y0.4041 F200
G0 X0.1158 Y0.3959 F200
G1 X9.4742 Y0.0000 E1.800 F200
G0 X-0.1013 Y0.2733 F200
G0 X-0.1170 Y0.2670 F200
G0 X-0.1324 Y0.2597 F200
G1 X-8.7727 Y-0.0000 E2.000 F200
G0 X0.1641 Y0.2782 F200
G0 X0.1817 Y0.2670 F200
G0 X0.1986 Y0.2547 F200
G1 X7.6837 Y-0.0000 E2.200 F200
G0 X-0.2596 Y0.2882 F200
G0 X-0.2812 Y0.2672 F200
G0 X-0.3011 Y0.2446 F200
G1 X-6.0000 Y0.0000 E2.400 F200
G0 X0.2953 Y0.2053 F200
G0 X0.3093 Y0.1835 F200
G0 X0.3217 Y0.1608 F200
G0 X0.3324 Y0.1373 F200
G0 X0.3414 Y0.1130 F200
G1 X2.8000 Y0.0000 E2.600 F200

; Print complete at final infill endpoint
G92 E0
M107
