; 10 mm circle with 0.8 mm parallel line infill
; Single layer
; Calibrated nozzle position is the LEFTMOST point of the circle
; All non-extruding moves are routed along the circle perimeter
; No diagonal travel moves cross the interior
; Relative XYZ motion; ABSOLUTE/CUMULATIVE extrusion; no homing
M107
G21
G91
M82
G92 E0

; ===== Layer 1 =====
; Outer circle
G1 X0.0190 Y-0.4358 E0.01163 F12000
G1 X0.0569 Y-0.4325 E0.02326 F12000
G1 X0.0944 Y-0.4259 E0.03489 F12000
G1 X0.1312 Y-0.4160 E0.04652 F12000
G1 X0.1669 Y-0.4030 E0.05815 F12000
G1 X0.2014 Y-0.3869 E0.06978 F12000
G1 X0.2344 Y-0.3679 E0.08141 F12000
G1 X0.2655 Y-0.3461 E0.09304 F12000
G1 X0.2947 Y-0.3216 E0.10467 F12000
G1 X0.3216 Y-0.2947 E0.11630 F12000
G1 X0.3461 Y-0.2655 E0.12793 F12000
G1 X0.3679 Y-0.2344 E0.13956 F12000
G1 X0.3869 Y-0.2014 E0.15119 F12000
G1 X0.4030 Y-0.1669 E0.16282 F12000
G1 X0.4160 Y-0.1312 E0.17445 F12000
G1 X0.4259 Y-0.0944 E0.18608 F12000
G1 X0.4325 Y-0.0569 E0.19771 F12000
G1 X0.4358 Y-0.0190 E0.20934 F12000
G1 X0.4358 Y0.0190 E0.22097 F12000
G1 X0.4325 Y0.0569 E0.23260 F12000
G1 X0.4259 Y0.0944 E0.24423 F12000
G1 X0.4160 Y0.1312 E0.25586 F12000
G1 X0.4030 Y0.1669 E0.26749 F12000
G1 X0.3869 Y0.2014 E0.27912 F12000
G1 X0.3679 Y0.2344 E0.29075 F12000
G1 X0.3461 Y0.2655 E0.30238 F12000
G1 X0.3216 Y0.2947 E0.31401 F12000
G1 X0.2947 Y0.3216 E0.32564 F12000
G1 X0.2655 Y0.3461 E0.33727 F12000
G1 X0.2344 Y0.3679 E0.34890 F12000
G1 X0.2014 Y0.3869 E0.36053 F12000
G1 X0.1669 Y0.4030 E0.37216 F12000
G1 X0.1312 Y0.4160 E0.38379 F12000
G1 X0.0944 Y0.4259 E0.39542 F12000
G1 X0.0569 Y0.4325 E0.40705 F12000
G1 X0.0190 Y0.4358 E0.41868 F12000
G1 X-0.0190 Y0.4358 E0.43031 F12000
G1 X-0.0569 Y0.4325 E0.44194 F12000
G1 X-0.0944 Y0.4259 E0.45357 F12000
G1 X-0.1312 Y0.4160 E0.46520 F12000
G1 X-0.1669 Y0.4030 E0.47683 F12000
G1 X-0.2014 Y0.3869 E0.48846 F12000
G1 X-0.2344 Y0.3679 E0.50009 F12000
G1 X-0.2655 Y0.3461 E0.51172 F12000
G1 X-0.2947 Y0.3216 E0.52335 F12000
G1 X-0.3216 Y0.2947 E0.53498 F12000
G1 X-0.3461 Y0.2655 E0.54661 F12000
G1 X-0.3679 Y0.2344 E0.55824 F12000
G1 X-0.3869 Y0.2014 E0.56987 F12000
G1 X-0.4030 Y0.1669 E0.58150 F12000
G1 X-0.4160 Y0.1312 E0.59313 F12000
G1 X-0.4259 Y0.0944 E0.60476 F12000
G1 X-0.4325 Y0.0569 E0.61639 F12000
G1 X-0.4358 Y0.0190 E0.62802 F12000
G1 X-0.4358 Y-0.0190 E0.63965 F12000
G1 X-0.4325 Y-0.0569 E0.65128 F12000
G1 X-0.4259 Y-0.0944 E0.66291 F12000
G1 X-0.4160 Y-0.1312 E0.67454 F12000
G1 X-0.4030 Y-0.1669 E0.68617 F12000
G1 X-0.3869 Y-0.2014 E0.69780 F12000
G1 X-0.3679 Y-0.2344 E0.70943 F12000
G1 X-0.3461 Y-0.2655 E0.72106 F12000
G1 X-0.3216 Y-0.2947 E0.73269 F12000
G1 X-0.2947 Y-0.3216 E0.74432 F12000
G1 X-0.2655 Y-0.3461 E0.75595 F12000
G1 X-0.2344 Y-0.3679 E0.76758 F12000
G1 X-0.2014 Y-0.3869 E0.77921 F12000
G1 X-0.1669 Y-0.4030 E0.79084 F12000
G1 X-0.1312 Y-0.4160 E0.80247 F12000
G1 X-0.0944 Y-0.4259 E0.81410 F12000
G1 X-0.0569 Y-0.4325 E0.82573 F12000
G1 X-0.0190 Y-0.4358 E0.83736 F12000
; Parallel horizontal infill, 0.8 mm spacing
G0 X0.0184 Y-0.4285 F12000
G0 X0.0550 Y-0.4253 F12000
G0 X0.0913 Y-0.4190 F12000
G0 X0.1269 Y-0.4097 F12000
G0 X0.1615 Y-0.3973 F12000
G0 X0.1950 Y-0.3820 F12000
G0 X0.2270 Y-0.3639 F12000
G0 X0.2573 Y-0.3431 F12000
G0 X0.2858 Y-0.3198 F12000
G0 X0.3121 Y-0.2941 F12000
G0 X0.3362 Y-0.2663 F12000
G0 X0.3578 Y-0.2365 F12000
G0 X0.3767 Y-0.2050 F12000
G0 X0.3929 Y-0.1719 F12000
G0 X0.4062 Y-0.1376 F12000
G1 X2.8000 Y-0.0000 E0.91203 F12000
G0 X0.3414 Y0.1130 F12000
G0 X0.3324 Y0.1373 F12000
G0 X0.3217 Y0.1608 F12000
G0 X0.3093 Y0.1835 F12000
G0 X0.2953 Y0.2053 F12000
G1 X-6.0000 Y-0.0000 E1.07203 F12000
G0 X-0.3011 Y0.2446 F12000
G0 X-0.2812 Y0.2672 F12000
G0 X-0.2596 Y0.2882 F12000
G1 X7.6837 Y0.0000 E1.27693 F12000
G0 X0.1986 Y0.2547 F12000
G0 X0.1817 Y0.2670 F12000
G0 X0.1641 Y0.2782 F12000
G1 X-8.7727 Y-0.0000 E1.51087 F12000
G0 X-0.1324 Y0.2597 F12000
G0 X-0.1170 Y0.2670 F12000
G0 X-0.1013 Y0.2733 F12000
G1 X9.4742 Y-0.0000 E1.76351 F12000
G0 X0.1158 Y0.3959 F12000
G0 X0.0827 Y0.4041 F12000
G1 X-9.8712 Y0.0000 E2.02674 F12000
G0 X-0.0483 Y0.3987 F12000
G0 X-0.0161 Y0.4013 F12000
G1 X10.0000 Y0.0000 E2.29341 F12000
G0 X-0.0161 Y0.4013 F12000
G0 X-0.0483 Y0.3987 F12000
G1 X-9.8712 Y0.0000 E2.55664 F12000
G0 X0.0827 Y0.4041 F12000
G0 X0.1158 Y0.3959 F12000
G1 X9.4742 Y0.0000 E2.80928 F12000
G0 X-0.1013 Y0.2733 F12000
G0 X-0.1170 Y0.2670 F12000
G0 X-0.1324 Y0.2597 F12000
G1 X-8.7727 Y-0.0000 E3.04322 F12000
G0 X0.1641 Y0.2782 F12000
G0 X0.1817 Y0.2670 F12000
G0 X0.1986 Y0.2547 F12000
G1 X7.6837 Y-0.0000 E3.24812 F12000
G0 X-0.2596 Y0.2882 F12000
G0 X-0.2812 Y0.2672 F12000
G0 X-0.3011 Y0.2446 F12000
G1 X-6.0000 Y0.0000 E3.40812 F12000
G0 X0.2953 Y0.2053 F12000
G0 X0.3093 Y0.1835 F12000
G0 X0.3217 Y0.1608 F12000
G0 X0.3324 Y0.1373 F12000
G0 X0.3414 Y0.1130 F12000
G1 X2.8000 Y0.0000 E3.48279 F12000

; Print complete at final infill endpoint
G92 E0
M107
