; 10 mm circle with 0.8 mm parallel line infill
; Single layer
; Calibrated nozzle position is the LEFTMOST point of the circle
; All non-extruding moves are routed along the circle perimeter
; No diagonal travel moves cross the interior
; Relative XYZ motion; relative extrusion; no homing
M107
G21
G91
M83
G92 E0

; ===== Layer 1 =====
; Outer circle
G1 X0.0190 Y-0.4358 E0.01163 F12000
G1 X0.0569 Y-0.4325 E0.01163 F12000
G1 X0.0944 Y-0.4259 E0.01163 F12000
G1 X0.1312 Y-0.4160 E0.01163 F12000
G1 X0.1669 Y-0.4030 E0.01163 F12000
G1 X0.2014 Y-0.3869 E0.01163 F12000
G1 X0.2344 Y-0.3679 E0.01163 F12000
G1 X0.2655 Y-0.3461 E0.01163 F12000
G1 X0.2947 Y-0.3216 E0.01163 F12000
G1 X0.3216 Y-0.2947 E0.01163 F12000
G1 X0.3461 Y-0.2655 E0.01163 F12000
G1 X0.3679 Y-0.2344 E0.01163 F12000
G1 X0.3869 Y-0.2014 E0.01163 F12000
G1 X0.4030 Y-0.1669 E0.01163 F12000
G1 X0.4160 Y-0.1312 E0.01163 F12000
G1 X0.4259 Y-0.0944 E0.01163 F12000
G1 X0.4325 Y-0.0569 E0.01163 F12000
G1 X0.4358 Y-0.0190 E0.01163 F12000
G1 X0.4358 Y0.0190 E0.01163 F12000
G1 X0.4325 Y0.0569 E0.01163 F12000
G1 X0.4259 Y0.0944 E0.01163 F12000
G1 X0.4160 Y0.1312 E0.01163 F12000
G1 X0.4030 Y0.1669 E0.01163 F12000
G1 X0.3869 Y0.2014 E0.01163 F12000
G1 X0.3679 Y0.2344 E0.01163 F12000
G1 X0.3461 Y0.2655 E0.01163 F12000
G1 X0.3216 Y0.2947 E0.01163 F12000
G1 X0.2947 Y0.3216 E0.01163 F12000
G1 X0.2655 Y0.3461 E0.01163 F12000
G1 X0.2344 Y0.3679 E0.01163 F12000
G1 X0.2014 Y0.3869 E0.01163 F12000
G1 X0.1669 Y0.4030 E0.01163 F12000
G1 X0.1312 Y0.4160 E0.01163 F12000
G1 X0.0944 Y0.4259 E0.01163 F12000
G1 X0.0569 Y0.4325 E0.01163 F12000
G1 X0.0190 Y0.4358 E0.01163 F12000
G1 X-0.0190 Y0.4358 E0.01163 F12000
G1 X-0.0569 Y0.4325 E0.01163 F12000
G1 X-0.0944 Y0.4259 E0.01163 F12000
G1 X-0.1312 Y0.4160 E0.01163 F12000
G1 X-0.1669 Y0.4030 E0.01163 F12000
G1 X-0.2014 Y0.3869 E0.01163 F12000
G1 X-0.2344 Y0.3679 E0.01163 F12000
G1 X-0.2655 Y0.3461 E0.01163 F12000
G1 X-0.2947 Y0.3216 E0.01163 F12000
G1 X-0.3216 Y0.2947 E0.01163 F12000
G1 X-0.3461 Y0.2655 E0.01163 F12000
G1 X-0.3679 Y0.2344 E0.01163 F12000
G1 X-0.3869 Y0.2014 E0.01163 F12000
G1 X-0.4030 Y0.1669 E0.01163 F12000
G1 X-0.4160 Y0.1312 E0.01163 F12000
G1 X-0.4259 Y0.0944 E0.01163 F12000
G1 X-0.4325 Y0.0569 E0.01163 F12000
G1 X-0.4358 Y0.0190 E0.01163 F12000
G1 X-0.4358 Y-0.0190 E0.01163 F12000
G1 X-0.4325 Y-0.0569 E0.01163 F12000
G1 X-0.4259 Y-0.0944 E0.01163 F12000
G1 X-0.4160 Y-0.1312 E0.01163 F12000
G1 X-0.4030 Y-0.1669 E0.01163 F12000
G1 X-0.3869 Y-0.2014 E0.01163 F12000
G1 X-0.3679 Y-0.2344 E0.01163 F12000
G1 X-0.3461 Y-0.2655 E0.01163 F12000
G1 X-0.3216 Y-0.2947 E0.01163 F12000
G1 X-0.2947 Y-0.3216 E0.01163 F12000
G1 X-0.2655 Y-0.3461 E0.01163 F12000
G1 X-0.2344 Y-0.3679 E0.01163 F12000
G1 X-0.2014 Y-0.3869 E0.01163 F12000
G1 X-0.1669 Y-0.4030 E0.01163 F12000
G1 X-0.1312 Y-0.4160 E0.01163 F12000
G1 X-0.0944 Y-0.4259 E0.01163 F12000
G1 X-0.0569 Y-0.4325 E0.01163 F12000
G1 X-0.0190 Y-0.4358 E0.01163 F12000
; Parallel horizontal infill, 0.8 mm spacing
G0 X0.0184 Y-0.4285 F12000
G0 X0.0550 Y-0.4253 F12000
G0 X0.0913 Y-0.4190 F12000
G0 X0.1269 Y-0.4097 F12000
G0 X0.1615 Y-0.3973 F12000
G0 X0.1950 Y-0.3820 F12000
G0 X0.2270 Y-0.3639 F12000
G0 X0.2573 Y-0.3431 F12000
G0 X0.2858 Y-0.3198 F12000
G0 X0.3121 Y-0.2941 F12000
G0 X0.3362 Y-0.2663 F12000
G0 X0.3578 Y-0.2365 F12000
G0 X0.3767 Y-0.2050 F12000
G0 X0.3929 Y-0.1719 F12000
G0 X0.4062 Y-0.1376 F12000
G1 X2.8000 Y-0.0000 E0.07467 F12000
G0 X0.3414 Y0.1130 F12000
G0 X0.3324 Y0.1373 F12000
G0 X0.3217 Y0.1608 F12000
G0 X0.3093 Y0.1835 F12000
G0 X0.2953 Y0.2053 F12000
G1 X-6.0000 Y-0.0000 E0.16000 F12000
G0 X-0.3011 Y0.2446 F12000
G0 X-0.2812 Y0.2672 F12000
G0 X-0.2596 Y0.2882 F12000
G1 X7.6837 Y0.0000 E0.20490 F12000
G0 X0.1986 Y0.2547 F12000
G0 X0.1817 Y0.2670 F12000
G0 X0.1641 Y0.2782 F12000
G1 X-8.7727 Y-0.0000 E0.23394 F12000
G0 X-0.1324 Y0.2597 F12000
G0 X-0.1170 Y0.2670 F12000
G0 X-0.1013 Y0.2733 F12000
G1 X9.4742 Y-0.0000 E0.25264 F12000
G0 X0.1158 Y0.3959 F12000
G0 X0.0827 Y0.4041 F12000
G1 X-9.8712 Y0.0000 E0.26323 F12000
G0 X-0.0483 Y0.3987 F12000
G0 X-0.0161 Y0.4013 F12000
G1 X10.0000 Y0.0000 E0.26667 F12000
G0 X-0.0161 Y0.4013 F12000
G0 X-0.0483 Y0.3987 F12000
G1 X-9.8712 Y0.0000 E0.26323 F12000
G0 X0.0827 Y0.4041 F12000
G0 X0.1158 Y0.3959 F12000
G1 X9.4742 Y0.0000 E0.25264 F12000
G0 X-0.1013 Y0.2733 F12000
G0 X-0.1170 Y0.2670 F12000
G0 X-0.1324 Y0.2597 F12000
G1 X-8.7727 Y-0.0000 E0.23394 F12000
G0 X0.1641 Y0.2782 F12000
G0 X0.1817 Y0.2670 F12000
G0 X0.1986 Y0.2547 F12000
G1 X7.6837 Y-0.0000 E0.20490 F12000
G0 X-0.2596 Y0.2882 F12000
G0 X-0.2812 Y0.2672 F12000
G0 X-0.3011 Y0.2446 F12000
G1 X-6.0000 Y0.0000 E0.16000 F12000
G0 X0.2953 Y0.2053 F12000
G0 X0.3093 Y0.1835 F12000
G0 X0.3217 Y0.1608 F12000
G0 X0.3324 Y0.1373 F12000
G0 X0.3414 Y0.1130 F12000
G1 X2.8000 Y0.0000 E0.07467 F12000

; Print complete at final infill endpoint
G92 E0
M107